STARLINK-5693           
1 55482U 23015AK  24315.65214921  .00000971  00000+0  86925-4 0  9990
2 55482  43.0049  88.9802 0001664 269.7863  90.2789 15.02532338 97798
STARLINK-5692           
1 55483U 23015AL  24315.86379967 -.00000502  00000+0 -22093-4 0  9994
2 55483  43.0032  87.9872 0001327 268.6156  91.4534 15.02527611 97829
STARLINK-5696           
1 55484U 23015AM  24316.05434531 -.00000369  00000+0 -12266-4 0  9998
2 55484  42.9993  86.8370 0001176 250.0997 109.9719 15.02539607 97856
STARLINK-5695           
1 55485U 23015AN  24315.67102439 -.00005172  00000+0 -36797-3 0  9996
2 55485  43.0024  89.1199 0001370 265.0574  95.0112 15.02545226 97791
STARLINK-5704           
1 55486U 23015AP  24315.79065180 -.00002325  00000+0 -15715-3 0  9995
2 55486  43.0036  88.2532 0001315 263.3227  96.7466 15.02530610 97815
STARLINK-5701           
1 55487U 23015AQ  24316.07099546  .00001532  00000+0  12848-3 0  9992
2 55487  43.0025  86.9622 0001213 269.7026  90.3678 15.02532115 97854
STARLINK-5706           
1 55488U 23015AR  24315.84714612  .00000354  00000+0  41285-4 0  9994
2 55488  43.0052  87.8570 0001834 265.0788  94.9845 15.02530321 97820
STARLINK-5371           
1 55489U 23015AS  24316.05989864 -.00000184  00000+0  14793-5 0  9999
2 55489  43.0029  86.8784 0001771 267.8446  92.2193 15.02536356 97856
STARLINK-5373           
1 55490U 23015AT  24316.05767436  .00000406  00000+0  45098-4 0  9997
2 55490  43.0024  86.8512 0001073 269.1272  90.9447 15.02534198 97678
STARLINK-5364           
1 55491U 23015AU  24315.71247463 -.00000119  00000+0  62488-5 0  9998
2 55491  43.0014  62.5617 0000980 264.8995  95.1735 15.02542659 98102
STARLINK-5013           
1 55492U 23015AV  24315.78399778 -.00001331  00000+0 -83484-4 0  9999
2 55492  43.0038  88.2461 0000960 278.6657  81.4077 15.02531764 97816
STARLINK-5362           
1 55493U 23015AW  24316.05324285  .00007131  00000+0  54275-3 0  9999
2 55493  43.0023  86.8237 0000910 287.6713  72.4030 15.02510084 97859
STARLINK-5344           
1 55494U 23015AX  24315.43940530 -.00001154  00000+0 -70428-4 0  9998
2 55494  43.0001  89.9541 0000963 265.2325  94.8407 15.02527414 97768
STARLINK-5100           
1 55495U 23015AY  24315.76465410 -.00002057  00000+0 -13729-3 0  9997
2 55495  43.0017  62.9624 0000924 256.9013 103.1726 15.02530087 98104
STARLINK-5363           
1 55497U 23015BA  24315.63772228 -.00001503  00000+0 -96183-4 0  9994
2 55497  43.0061  88.8665 0002003 273.7300  86.3313 15.02529304 97791
STARLINK-5365           
1 55498U 23015BB  24316.09419035 -.00000832  00000+0 -46540-4 0  9996
2 55498  43.0023  86.2683 0001918 273.8603  86.2020 15.02526720 97864
STARLINK-5366           
1 55499U 23015BC  24315.82160793  .00000077  00000+0  20802-4 0  9993
2 55499  43.0034  87.6624 0001160 268.6629  91.4081 15.02541786 98579
STARLINK-5141           
1 55500U 23015BD  24316.09973748 -.00000376  00000+0 -12747-4 0  9991
2 55500  43.0045  86.3103 0001908 265.3598  94.7026 15.02531457 97861
STARLINK-5367           
1 55501U 23015BE  24316.08975893 -.00001156  00000+0 -70518-4 0  9991
2 55501  42.9997  86.2307 0000971 272.2822  87.7909 15.02523780 97869
ELEKTRO-L 4             
1 55506U 23016A   24315.40041374 -.00000049  00000+0  00000+0 0  9993
2 55506   0.0260 256.4165 0003272 358.9111 104.6695  1.00270826  6476
AMAZONAS NEXUS          
1 55508U 23017A   24313.77532580 -.00000272  00000+0  00000+0 0  9996
2 55508   0.0458  49.3920 0001202 171.8964  45.2964  1.00269247  1170
EOS-7                   
1 55562U 23019A   24315.81232254  .00365452  00000+0  21245-2 0  9990
2 55562  37.1765   9.1974 0003148  82.0812 278.0316 15.76511618 99142
STARLINK-5749           
1 55569U 23020A   24315.85441448 -.00000903  00000+0 -51810-4 0  9992
2 55569  43.0014 114.0322 0001091 272.0436  88.0281 15.02539827 97209
STARLINK-5737           
1 55570U 23020B   24316.12255347  .00007963  00000+0  60441-3 0  9996
2 55570  43.0021 112.6049 0001004 255.8382 104.2349 15.02503528 96172
STARLINK-5739           
1 55571U 23020C   24315.71812820 -.00000367  00000+0 -12115-4 0  9995
2 55571  43.0014 114.7297 0000966 276.8904  83.1828 15.02538712 96116
STARLINK-5732           
1 55572U 23020D   24315.91312256  .00000103  00000+0  22682-4 0  9992
2 55572  43.0027 113.6145 0001179 274.3025  85.7682 15.02537095 96147
STARLINK-5738           
1 55573U 23020E   24315.91423523  .00000144  00000+0  25740-4 0  9996
2 55573  43.0023 113.6202 0001588 266.4425  93.6235 15.02531622 96140
STARLINK-5747           
1 55574U 23020F   24315.77128809 -.00002839  00000+0 -19511-3 0  9993
2 55574  43.0027 114.2663 0001581 261.8616  98.2047 15.02545411 96128
STARLINK-5745           
1 55575U 23020G   24315.71036211 -.00000952  00000+0 -55438-4 0  9996
2 55575  43.0043 114.6744 0001472 275.5084  84.5591 15.02522833 96115
STARLINK-5751           
1 55576U 23020H   24315.81718809  .00001023  00000+0  90787-4 0  9992
2 55576  43.0028  87.7676 0001341 275.9999  84.0691 15.02544959 96431
STARLINK-5752           
1 55577U 23020J   24316.17236770  .00000422  00000+0  46320-4 0  9991
2 55577  43.0037 112.0496 0001535 267.5975  92.4692 15.02532446 96184
STARLINK-5713           
1 55578U 23020K   24315.63022113  .00014608  00000+0  10772-2 0  9997
2 55578  43.0012 114.8969 0001779 277.7097  82.3543 15.03128046 96104
STARLINK-5754           
1 55579U 23020L   24315.75352510 -.00000277  00000+0 -54369-5 0  9990
2 55579  43.0019 114.1383 0001219 276.9752  83.0951 15.02537363 96121
STARLINK-5757           
1 55580U 23020M   24315.81497503 -.00001679  00000+0 -10926-3 0  9997
2 55580  43.0033  87.7476 0001750 262.4786  97.5858 15.02528457 96438
STARLINK-5753           
1 55581U 23020N   24315.90091289  .00000117  00000+0  23754-4 0  9997
2 55581  43.0021 113.5207 0001102 275.0746  84.9970 15.02536062 96147
STARLINK-5741           
1 55582U 23020P   24316.13379779  .00001017  00000+0  90354-4 0  9997
2 55582  43.0028  98.8704 0001443 265.2982  94.7696 15.02521744 96339
STARLINK-5742           
1 55583U 23020Q   24316.16016454 -.00003752  00000+0 -26282-3 0  9997
2 55583  43.0014 112.0218 0000798 264.5322  95.5429 15.02539685 96185
STARLINK-5736           
1 55584U 23020R   24315.89202971  .00001349  00000+0  11491-3 0  9992
2 55584  43.0020 113.4554 0001606 273.5451  86.5208 15.02541898 96143
STARLINK-5769           
1 55585U 23020S   24316.12280957  .00003487  00000+0  27314-3 0  9996
2 55585  43.0026  99.6473 0001475 268.8324  91.2349 15.02527889 96328
STARLINK-5767           
1 55586U 23020T   24316.15018047 -.00000496  00000+0 -21664-4 0  9991
2 55586  43.0049 111.9512 0001365 262.0607  98.0080 15.02531803 96186
STARLINK-5727           
1 55587U 23020U   24316.15572029  .00004565  00000+0  35305-3 0  9992
2 55587  43.0017 111.9293 0001215 297.9152  62.1568 15.02510432 96182
STARLINK-5728           
1 55588U 23020V   24315.94408337  .00000233  00000+0  32309-4 0  9999
2 55588  43.0036 112.9880 0002074 284.5970  75.4642 15.02535906 96151
STARLINK-5697           
1 55589U 23020W   24316.14906531  .00000132  00000+0  24871-4 0  9995
2 55589  43.0021 111.9398 0001099 279.7275  80.3443 15.02537354 96185
STARLINK-5762           
1 55590U 23020X   24316.13685573 -.00005171  00000+0 -36784-3 0  9991
2 55590  43.0038 111.8524 0001638 268.7467  91.3187 15.02550388 96184
STARLINK-5760           
1 55591U 23020Y   24315.74797958  .00000083  00000+0  21175-4 0  9993
2 55591  43.0019 114.0930 0000970 276.0806  83.9926 15.02533942 96126
STARLINK-5759           
1 55592U 23020Z   24315.86650735  .00000182  00000+0  28530-4 0  9990
2 55592  43.0019 113.2661 0001042 270.7345  89.3378 15.02534750 96140
STARLINK-5703           
1 55593U 23020AA  24315.74132070 -.00000457  00000+0 -18735-4 0  9998
2 55593  43.0026 114.0470 0000997 271.1536  88.9192 15.02537166 96122
STARLINK-5750           
1 55594U 23020AB  24315.73022735 -.00000859  00000+0 -48522-4 0  9997
2 55594  43.0032 113.9645 0001493 263.3651  96.7022 15.02525923 96122
STARLINK-5740           
1 55595U 23020AC  24315.73688002 -.00000041  00000+0  12069-4 0  9992
2 55595  43.0030 114.0090 0001159 273.8844  86.1866 15.02534411 96127
STARLINK-5729           
1 55596U 23020AD  24315.72800038  .00000488  00000+0  51174-4 0  9991
2 55596  43.0031 113.9474 0001133 272.8193  87.2520 15.02537363 96129
STARLINK-5743           
1 55597U 23020AE  24315.72061480 -.00001429  00000+0 -90722-4 0  9992
2 55597  43.0027 101.7881 0001399 267.6294  92.4388 15.02527111 96265
STARLINK-5756           
1 55598U 23020AF  24315.79707449 -.00003887  00000+0 -27286-3 0  9996
2 55598  43.0025 101.4680 0001491 264.0313  96.0359 15.02527024 96276
STARLINK-5761           
1 55599U 23020AG  24315.72726884  .00000879  00000+0  80164-4 0  9995
2 55599  43.0020 101.8055 0001159 270.0067  90.0642 15.02531316 96263
STARLINK-5755           
1 55600U 23020AH  24315.71505623 -.00000966  00000+0 -56478-4 0  9993
2 55600  43.0014 101.7318 0000825 271.7058  88.3689 15.02539873 96264
STARLINK-5744           
1 55601U 23020AJ  24315.85762737 -.00000848  00000+0 -47753-4 0  9995
2 55601  43.0013 113.1974 0001374 262.1398  97.9289 15.02529540 96149
STARLINK-5764           
1 55602U 23020AK  24315.72504474  .00000181  00000+0  28435-4 0  9998
2 55602  43.0020 101.7885 0001087 275.2920  84.7798 15.02539491 96267
STARLINK-5735           
1 55603U 23020AL  24315.71838981  .00000188  00000+0  28950-4 0  9990
2 55603  43.0023 101.7599 0001003 275.4602  84.6125 15.02536872 96263
STARLINK-5748           
1 55604U 23020AM  24316.08643534  .00000284  00000+0  36097-4 0  9998
2 55604  43.0013  86.3537 0000691 277.5342  82.5422 15.02533236 96470
STARLINK-5725           
1 55605U 23020AN  24315.71394770 -.00001064  00000+0 -63718-4 0  9992
2 55605  43.0004 101.7226 0000556 261.8138  98.2641 15.02542890 96267
STARLINK-5700           
1 55607U 23020AQ  24315.90672509  .00001999  00000+0  16305-3 0  9998
2 55607  43.0024 100.5904 0001391 265.3933  94.6750 15.02529041 96298
